start=new Date('2022-03-30T00:00:00.000Z').valueOf();
sats=[{"APOAPSIS":"548.240","NORAD_CAT_ID":"47753","TIME_SYSTEM":"UTC","COUNTRY_CODE":"US","EPHEMERIS_TYPE":"0","OBJECT_TYPE":"PAYLOAD","OBJECT_NAME":"STARLINK-2170","MEAN_ANOMALY":"305.3822","MEAN_ELEMENT_THEORY":"SGP4","FILE":"3379484","MEAN_MOTION":"15.06394276","PERIOD":"95.593","ECCENTRICITY":"0.00014570","INCLINATION":"53.0561","DECAY_DATE":null,"LAUNCH_DATE":"2021-03-04","RA_OF_ASC_NODE":"200.1568","GP_ID":"200019799","CENTER_NAME":"EARTH","CLASSIFICATION_TYPE":"U","SITE":"AFETR","RCS_SIZE":"LARGE","SEMIMAJOR_AXIS":"6925.366","ELEMENT_SET_NO":"999","TLE_LINE2":"2 47753  53.0561 200.1568 0001457  54.7303 305.3822 15.06394276 60595","ARG_OF_PERICENTER":"54.7303","OBJECT_ID":"2021-017AH","PERIAPSIS":"546.222","REF_FRAME":"TEME","REV_AT_EPOCH":"6059","TLE_LINE1":"1 47753U 21017AH  22088.77129697 -.00001227  00000-0 -63481-4 0  9995","EPOCH":"2022-03-29T18:30:40.058208","MEAN_MOTION_DDOT":"0.0000000000000","BSTAR":"-0.00006348100000","MEAN_MOTION_DOT":"-0.00001227"},{"MEAN_MOTION_DOT":"-0.00002352","BSTAR":"-0.00013912000000","MEAN_MOTION_DDOT":"0.0000000000000","TLE_LINE1":"1 47754U 21017AJ  22088.80814069 -.00002352  00000-0 -13912-3 0  9997","EPOCH":"2022-03-29T19:23:43.355616","PERIAPSIS":"546.142","REV_AT_EPOCH":"5992","REF_FRAME":"TEME","OBJECT_ID":"2021-017AJ","TLE_LINE2":"2 47754  53.0549 199.9990 0001593  51.9150 308.1982 15.06389678 59929","ELEMENT_SET_NO":"999","ARG_OF_PERICENTER":"51.9150","SEMIMAJOR_AXIS":"6925.380","CLASSIFICATION_TYPE":"U","CENTER_NAME":"EARTH","RCS_SIZE":"LARGE","SITE":"AFETR","GP_ID":"200020047","RA_OF_ASC_NODE":"199.9990","DECAY_DATE":null,"INCLINATION":"53.0549","ECCENTRICITY":"0.00015930","LAUNCH_DATE":"2021-03-04","PERIOD":"95.593","MEAN_MOTION":"15.06389678","MEAN_ANOMALY":"308.1982","FILE":"3379484","MEAN_ELEMENT_THEORY":"SGP4","OBJECT_TYPE":"PAYLOAD","OBJECT_NAME":"STARLINK-2171","COUNTRY_CODE":"US","EPHEMERIS_TYPE":"0","TIME_SYSTEM":"UTC","APOAPSIS":"548.348","NORAD_CAT_ID":"47754"},{"MEAN_ELEMENT_THEORY":"SGP4","FILE":"3379484","MEAN_ANOMALY":"55.5561","OBJECT_NAME":"STARLINK-2172","OBJECT_TYPE":"PAYLOAD","EPHEMERIS_TYPE":"0","COUNTRY_CODE":"US","APOAPSIS":"356.415","NORAD_CAT_ID":"47755","TIME_SYSTEM":"UTC","SITE":"AFETR","RCS_SIZE":"LARGE","CENTER_NAME":"EARTH","CLASSIFICATION_TYPE":"U","RA_OF_ASC_NODE":"163.9194","GP_ID":"200019297","LAUNCH_DATE":"2021-03-04","ECCENTRICITY":"0.00057220","INCLINATION":"53.0502","DECAY_DATE":null,"MEAN_MOTION":"15.72217168","PERIOD":"91.590","REF_FRAME":"TEME","REV_AT_EPOCH":"6107","PERIAPSIS":"348.712","OBJECT_ID":"2021-017AK","ARG_OF_PERICENTER":"304.4915","ELEMENT_SET_NO":"999","TLE_LINE2":"2 47755  53.0502 163.9194 0005722 304.4915  55.5561 15.72217168 61071","SEMIMAJOR_AXIS":"6730.699","MEAN_MOTION_DOT":"0.00060487","BSTAR":"0.00045030000000","MEAN_MOTION_DDOT":"0.0000000000000","EPOCH":"2022-03-29T22:01:12.312768","TLE_LINE1":"1 47755U 21017AK  22088.91750362  .00060487  00000-0  45030-3 0  9992"},{"MEAN_MOTION_DOT":"0.00001066","TLE_LINE1":"1 47756U 21017AL  22088.60542108  .00001066  00000-0  90415-4 0  9992","EPOCH":"2022-03-29T14:31:48.381312","BSTAR":"0.00009041500000","MEAN_MOTION_DDOT":"0.0000000000000","OBJECT_ID":"2021-017AL","PERIAPSIS":"546.304","REV_AT_EPOCH":"6057","REF_FRAME":"TEME","SEMIMAJOR_AXIS":"6925.349","TLE_LINE2":"2 47756  53.0547 200.9077 0001315  68.6954 291.4175 15.06399746 60575","ELEMENT_SET_NO":"999","ARG_OF_PERICENTER":"68.6954","GP_ID":"199991185","RA_OF_ASC_NODE":"200.9077","CENTER_NAME":"EARTH","CLASSIFICATION_TYPE":"U","SITE":"AFETR","RCS_SIZE":"LARGE","PERIOD":"95.592","MEAN_MOTION":"15.06399746","DECAY_DATE":null,"INCLINATION":"53.0547","ECCENTRICITY":"0.00013150","LAUNCH_DATE":"2021-03-04","OBJECT_TYPE":"PAYLOAD","OBJECT_NAME":"STARLINK-2174","MEAN_ANOMALY":"291.4175","FILE":"3379323","MEAN_ELEMENT_THEORY":"SGP4","TIME_SYSTEM":"UTC","APOAPSIS":"548.125","NORAD_CAT_ID":"47756","COUNTRY_CODE":"US","EPHEMERIS_TYPE":"0"},{"MEAN_MOTION":"15.06386384","PERIOD":"95.593","LAUNCH_DATE":"2021-03-04","INCLINATION":"53.0547","ECCENTRICITY":"0.00015860","DECAY_DATE":null,"RA_OF_ASC_NODE":"200.0839","GP_ID":"200020299","RCS_SIZE":"LARGE","SITE":"AFETR","CLASSIFICATION_TYPE":"U","CENTER_NAME":"EARTH","NORAD_CAT_ID":"47757","APOAPSIS":"548.354","TIME_SYSTEM":"UTC","EPHEMERIS_TYPE":"0","COUNTRY_CODE":"US","OBJECT_NAME":"STARLINK-2175","OBJECT_TYPE":"PAYLOAD","MEAN_ELEMENT_THEORY":"SGP4","FILE":"3379484","MEAN_ANOMALY":"306.4563","EPOCH":"2022-03-29T18:57:12.552768","TLE_LINE1":"1 47757U 21017AM  22088.78972862 -.00000141  00000-0  94082-5 0  9995","MEAN_MOTION_DDOT":"0.0000000000000","BSTAR":"0.00000940820000","MEAN_MOTION_DOT":"-0.00000141","SEMIMAJOR_AXIS":"6925.390","ARG_OF_PERICENTER":"53.6572","ELEMENT_SET_NO":"999","TLE_LINE2":"2 47757  53.0547 200.0839 0001586  53.6572 306.4563 15.06386384 59922","OBJECT_ID":"2021-017AM","REF_FRAME":"TEME","REV_AT_EPOCH":"5992","PERIAPSIS":"546.157"},{"MEAN_MOTION_DOT":"0.00116729","EPOCH":"2022-03-29T11:38:47.903424","TLE_LINE1":"1 47758U 21017AN  22088.48527666  .00116729  00000-0  63810-3 0  9993","MEAN_MOTION_DDOT":"0.0000000000000","BSTAR":"0.00063810000000","OBJECT_ID":"2021-017AN","REF_FRAME":"TEME","REV_AT_EPOCH":"6098","PERIAPSIS":"329.641","SEMIMAJOR_AXIS":"6711.349","ARG_OF_PERICENTER":"304.3401","ELEMENT_SET_NO":"999","TLE_LINE2":"2 47758  53.0551 171.1906 0005324 304.3401  55.7115 15.79021565 60984","RA_OF_ASC_NODE":"171.1906","GP_ID":"199991058","SITE":"AFETR","RCS_SIZE":"LARGE","CENTER_NAME":"EARTH","CLASSIFICATION_TYPE":"U","MEAN_MOTION":"15.79021565","PERIOD":"91.196","LAUNCH_DATE":"2021-03-04","ECCENTRICITY":"0.00053240","INCLINATION":"53.0551","DECAY_DATE":null,"OBJECT_NAME":"STARLINK-2176","OBJECT_TYPE":"PAYLOAD","MEAN_ELEMENT_THEORY":"SGP4","FILE":"3379323","MEAN_ANOMALY":"55.7115","NORAD_CAT_ID":"47758","APOAPSIS":"336.787","TIME_SYSTEM":"UTC","EPHEMERIS_TYPE":"0","COUNTRY_CODE":"US"},{"OBJECT_ID":"2021-017AQ","PERIAPSIS":"545.976","REF_FRAME":"TEME","REV_AT_EPOCH":"6044","SEMIMAJOR_AXIS":"6925.346","ELEMENT_SET_NO":"999","TLE_LINE2":"2 47760  53.0538 209.9293 0001782  55.2161 304.8995 15.06400989 60446","ARG_OF_PERICENTER":"55.2161","MEAN_MOTION_DOT":"0.00003531","TLE_LINE1":"1 47760U 21017AQ  22088.82196956  .00003531  00000-0  25581-3 0  9997","EPOCH":"2022-03-29T19:43:38.169984","MEAN_MOTION_DDOT":"0.0000000000000","BSTAR":"0.00025581000000","OBJECT_TYPE":"PAYLOAD","OBJECT_NAME":"STARLINK-2178","MEAN_ANOMALY":"304.8995","MEAN_ELEMENT_THEORY":"SGP4","FILE":"3379484","NORAD_CAT_ID":"47760","APOAPSIS":"548.445","TIME_SYSTEM":"UTC","COUNTRY_CODE":"US","EPHEMERIS_TYPE":"0","RA_OF_ASC_NODE":"209.9293","GP_ID":"200018798","CLASSIFICATION_TYPE":"U","CENTER_NAME":"EARTH","RCS_SIZE":"LARGE","SITE":"AFETR","MEAN_MOTION":"15.06400989","PERIOD":"95.592","INCLINATION":"53.0538","ECCENTRICITY":"0.00017820","DECAY_DATE":null,"LAUNCH_DATE":"2021-03-04"},{"MEAN_MOTION_DOT":"-0.00007501","EPOCH":"2022-03-29T14:05:15.979200","TLE_LINE1":"1 47761U 21017AR  22088.58699050 -.00007501  00000-0 -48549-3 0  9996","MEAN_MOTION_DDOT":"0.0000000000000","BSTAR":"-0.00048549000000","OBJECT_ID":"2021-017AR","REF_FRAME":"TEME","REV_AT_EPOCH":"6052","PERIAPSIS":"546.307","SEMIMAJOR_AXIS":"6925.416","ARG_OF_PERICENTER":"73.1620","ELEMENT_SET_NO":"999","TLE_LINE2":"2 47761  53.0542 200.9866 0001406  73.1620 286.9523 15.06378093 60527","RA_OF_ASC_NODE":"200.9866","GP_ID":"199990698","RCS_SIZE":"LARGE","SITE":"AFETR","CLASSIFICATION_TYPE":"U","CENTER_NAME":"EARTH","MEAN_MOTION":"15.06378093","PERIOD":"95.594","LAUNCH_DATE":"2021-03-04","ECCENTRICITY":"0.00014060","INCLINATION":"53.0542","DECAY_DATE":null,"OBJECT_NAME":"STARLINK-2179","OBJECT_TYPE":"PAYLOAD","MEAN_ELEMENT_THEORY":"SGP4","FILE":"3379323","MEAN_ANOMALY":"286.9523","NORAD_CAT_ID":"47761","APOAPSIS":"548.254","TIME_SYSTEM":"UTC","EPHEMERIS_TYPE":"0","COUNTRY_CODE":"US"},{"ARG_OF_PERICENTER":"55.9378","ELEMENT_SET_NO":"999","TLE_LINE2":"2 47762  53.0538 215.2799 0001646  55.9378 304.1767 15.06400470 60350","SEMIMAJOR_AXIS":"6925.347","REF_FRAME":"TEME","REV_AT_EPOCH":"6035","PERIAPSIS":"546.072","OBJECT_ID":"2021-017AS","MEAN_MOTION_DDOT":"0.0000000000000","BSTAR":"0.00006437200000","EPOCH":"2022-03-29T17:52:48.518400","TLE_LINE1":"1 47762U 21017AS  22088.74500600  .00000677  00000-0  64372-4 0  9995","MEAN_MOTION_DOT":"0.00000677","EPHEMERIS_TYPE":"0","COUNTRY_CODE":"US","NORAD_CAT_ID":"47762","APOAPSIS":"548.352","TIME_SYSTEM":"UTC","MEAN_ELEMENT_THEORY":"SGP4","FILE":"3379484","MEAN_ANOMALY":"304.1767","OBJECT_NAME":"STARLINK-2180","OBJECT_TYPE":"PAYLOAD","LAUNCH_DATE":"2021-03-04","ECCENTRICITY":"0.00016460","INCLINATION":"53.0538","DECAY_DATE":null,"MEAN_MOTION":"15.06400470","PERIOD":"95.592","RCS_SIZE":"LARGE","SITE":"AFETR","CENTER_NAME":"EARTH","CLASSIFICATION_TYPE":"U","RA_OF_ASC_NODE":"215.2799","GP_ID":"200019800"},{"EPHEMERIS_TYPE":"0","COUNTRY_CODE":"US","APOAPSIS":"548.490","NORAD_CAT_ID":"47763","TIME_SYSTEM":"UTC","MEAN_ELEMENT_THEORY":"SGP4","FILE":"3379323","MEAN_ANOMALY":"306.3874","OBJECT_NAME":"STARLINK-2181","OBJECT_TYPE":"PAYLOAD","LAUNCH_DATE":"2021-03-04","INCLINATION":"53.0558","ECCENTRICITY":"0.00018330","DECAY_DATE":null,"MEAN_MOTION":"15.06397795","PERIOD":"95.592","RCS_SIZE":"LARGE","SITE":"AFETR","CLASSIFICATION_TYPE":"U","CENTER_NAME":"EARTH","RA_OF_ASC_NODE":"205.7982","GP_ID":"199991546","ARG_OF_PERICENTER":"53.7284","ELEMENT_SET_NO":"999","TLE_LINE2":"2 47763  53.0558 205.7982 0001833  53.7284 306.3874 15.06397795 60450","SEMIMAJOR_AXIS":"6925.355","REF_FRAME":"TEME","REV_AT_EPOCH":"6045","PERIAPSIS":"545.951","OBJECT_ID":"2021-017AT","MEAN_MOTION_DDOT":"0.0000000000000","BSTAR":"0.00018912000000","EPOCH":"2022-03-29T15:05:39.481152","TLE_LINE1":"1 47763U 21017AT  22088.62892918  .00002536  00000-0  18912-3 0  9993","MEAN_MOTION_DOT":"0.00002536"}];
